BREEZE-M DEB            
1 41547U 15075H   26059.20791900 -.00000066  00000+0  00000+0 0  9990
2 41547   8.3949  63.1852 0265824 136.5180 225.7521  1.03190161 38155
BREEZE-M DEB            
1 41548U 15075J   26060.04037790 -.00000264  00000+0  00000+0 0  9995
2 41548   8.4466  56.9669 0368682 133.2880 230.0034  1.02195101 38161
THAICOM 8               
1 41552U 16031A   26063.10123411 -.00000134  00000+0  00000+0 0  9995
2 41552   0.0684  47.2391 0004017 303.8605 285.7332  1.00272471 35664
INTELSAT 31 (IS-31)     
1 41581U 16035A   26062.56766063 -.00000165  00000+0  00000+0 0  9990
2 41581   0.0397 252.5846 0001912 338.6854  39.3589  1.00271002 35628
BREEZE-M R/B            
1 41582U 16035B   26057.01423186 -.00000021  00000+0  00000+0 0  9992
2 41582  31.8260 305.9659 7906712 131.1030 329.7116  1.12664552 39980
DELTA 4 R/B             
1 41585U 16036B   26062.98475987 -.00000131  00000+0  00000+0 0  9996
2 41585   5.5574 357.8671 0229281 253.1176 104.4423  1.04079529 24637
BEIDOU-2 G7             
1 41586U 16037A   26062.97961392 -.00000365  00000+0  00000+0 0  9996
2 41586   1.4606  68.1972 0007538 341.8268 214.8775  1.00267566  5834
ABS-2A (MONGOLSAT-1)    
1 41588U 16038A   26062.46156115 -.00000098  00000+0  00000+0 0  9995
2 41588   0.0104 125.0239 0002009 165.8153 111.2487  1.00270720 35646
EUTELSAT 117 WEST B     
1 41589U 16038B   26063.13382090 -.00000024  00000+0  00000+0 0  9993
2 41589   0.0383 347.9115 0000199 235.6485 229.5029  1.00271894 35611
FALCON 9 R/B            
1 41590U 16038C   26062.86048779 -.00000250  00000+0 -28504-3 0  9992
2 41590  23.7897 344.3467 7960651 270.0021   9.8155  1.45721671 44532
BRISAT                  
1 41591U 16039A   26062.90156968  .00000000  00000+0  00000+0 0  9997
2 41591   0.0202 151.9148 0002196 192.5756 292.2363  1.00268645 35555
ECHOSTAR 18             
1 41592U 16039B   26063.15044814 -.00000294  00000+0  00000+0 0  9998
2 41592   0.0179 126.5261 0001633 216.6720 171.4854  1.00271454 35574
MUOS-5                  
1 41622U 16041A   26063.13572759 -.00000169  00000+0  00000+0 0  9998
2 41622   2.4319 299.8179 0195196 262.7474 263.1059  1.00271742 36036
TIANTONG-1 1            
1 41725U 16048A   26062.96310331 -.00000328  00000+0  00000+0 0  9992
2 41725   3.6496  42.4290 0005597 354.3311 213.0887  1.00272692 35215
JCSAT-16                
1 41729U 16050A   26062.90026968 -.00000265  00000+0  00000+0 0  9993
2 41729   0.0135 131.4492 0000767 216.6866 281.5454  1.00271445 35015
USA 270                 
1 41744U 16052A   26051.70824468 -.00000036  00000+0  00000+0 0  9995
2 41744   3.8986  78.6910 0003302 288.5278 204.8551  1.00327485 26963
USA 271                 
1 41745U 16052B   26051.81367943 -.00000346  00000+0  00000+0 0  9992
2 41745   3.8712  78.7558 0001639 331.9763 161.1961  1.00119522 26751
