[{"OBJECT_NAME":"BREEZE-M DEB","OBJECT_ID":"2015-075H","EPOCH":"2026-02-28T04:59:24.201600","MEAN_MOTION":1.03190161,"ECCENTRICITY":0.0265824,"INCLINATION":8.3949,"RA_OF_ASC_NODE":63.1852,"ARG_OF_PERICENTER":136.518,"MEAN_ANOMALY":225.7521,"EPHEMERIS_TYPE":0,"CLASSIFICATION_TYPE":"U","NORAD_CAT_ID":41547,"ELEMENT_SET_NO":999,"REV_AT_EPOCH":3815,"BSTAR":0,"MEAN_MOTION_DOT":-6.6e-7,"MEAN_MOTION_DDOT":0},{"OBJECT_NAME":"BREEZE-M DEB","OBJECT_ID":"2015-075J","EPOCH":"2026-03-01T00:58:08.650560","MEAN_MOTION":1.02195101,"ECCENTRICITY":0.0368682,"INCLINATION":8.4466,"RA_OF_ASC_NODE":56.9669,"ARG_OF_PERICENTER":133.288,"MEAN_ANOMALY":230.0034,"EPHEMERIS_TYPE":0,"CLASSIFICATION_TYPE":"U","NORAD_CAT_ID":41548,"ELEMENT_SET_NO":999,"REV_AT_EPOCH":3816,"BSTAR":0,"MEAN_MOTION_DOT":-2.64e-6,"MEAN_MOTION_DDOT":0},{"OBJECT_NAME":"THAICOM 8","OBJECT_ID":"2016-031A","EPOCH":"2026-03-04T02:25:46.627104","MEAN_MOTION":1.00272471,"ECCENTRICITY":0.0004017,"INCLINATION":0.0684,"RA_OF_ASC_NODE":47.2391,"ARG_OF_PERICENTER":303.8605,"MEAN_ANOMALY":285.7332,"EPHEMERIS_TYPE":0,"CLASSIFICATION_TYPE":"U","NORAD_CAT_ID":41552,"ELEMENT_SET_NO":999,"REV_AT_EPOCH":3566,"BSTAR":0,"MEAN_MOTION_DOT":-1.34e-6,"MEAN_MOTION_DDOT":0},{"OBJECT_NAME":"INTELSAT 31 (IS-31)","OBJECT_ID":"2016-035A","EPOCH":"2026-03-03T13:37:25.878432","MEAN_MOTION":1.00271002,"ECCENTRICITY":0.0001912,"INCLINATION":0.0397,"RA_OF_ASC_NODE":252.5846,"ARG_OF_PERICENTER":338.6854,"MEAN_ANOMALY":39.3589,"EPHEMERIS_TYPE":0,"CLASSIFICATION_TYPE":"U","NORAD_CAT_ID":41581,"ELEMENT_SET_NO":999,"REV_AT_EPOCH":3562,"BSTAR":0,"MEAN_MOTION_DOT":-1.65e-6,"MEAN_MOTION_DDOT":0},{"OBJECT_NAME":"BREEZE-M R/B","OBJECT_ID":"2016-035B","EPOCH":"2026-02-26T00:20:29.632704","MEAN_MOTION":1.12664552,"ECCENTRICITY":0.7906712,"INCLINATION":31.826,"RA_OF_ASC_NODE":305.9659,"ARG_OF_PERICENTER":131.103,"MEAN_ANOMALY":329.7116,"EPHEMERIS_TYPE":0,"CLASSIFICATION_TYPE":"U","NORAD_CAT_ID":41582,"ELEMENT_SET_NO":999,"REV_AT_EPOCH":3998,"BSTAR":0,"MEAN_MOTION_DOT":-2.1e-7,"MEAN_MOTION_DDOT":0},{"OBJECT_NAME":"DELTA 4 R/B","OBJECT_ID":"2016-036B","EPOCH":"2026-03-03T23:38:03.252768","MEAN_MOTION":1.04079529,"ECCENTRICITY":0.0229281,"INCLINATION":5.5574,"RA_OF_ASC_NODE":357.8671,"ARG_OF_PERICENTER":253.1176,"MEAN_ANOMALY":104.4423,"EPHEMERIS_TYPE":0,"CLASSIFICATION_TYPE":"U","NORAD_CAT_ID":41585,"ELEMENT_SET_NO":999,"REV_AT_EPOCH":2463,"BSTAR":0,"MEAN_MOTION_DOT":-1.31e-6,"MEAN_MOTION_DDOT":0},{"OBJECT_NAME":"BEIDOU-2 G7","OBJECT_ID":"2016-037A","EPOCH":"2026-03-03T23:30:38.642688","MEAN_MOTION":1.00267566,"ECCENTRICITY":0.0007538,"INCLINATION":1.4606,"RA_OF_ASC_NODE":68.1972,"ARG_OF_PERICENTER":341.8268,"MEAN_ANOMALY":214.8775,"EPHEMERIS_TYPE":0,"CLASSIFICATION_TYPE":"U","NORAD_CAT_ID":41586,"ELEMENT_SET_NO":999,"REV_AT_EPOCH":583,"BSTAR":0,"MEAN_MOTION_DOT":-3.65e-6,"MEAN_MOTION_DDOT":0},{"OBJECT_NAME":"ABS-2A (MONGOLSAT-1)","OBJECT_ID":"2016-038A","EPOCH":"2026-03-03T11:04:38.883360","MEAN_MOTION":1.0027072,"ECCENTRICITY":0.00020094,"INCLINATION":0.0104,"RA_OF_ASC_NODE":125.0239,"ARG_OF_PERICENTER":165.8153,"MEAN_ANOMALY":111.2487,"EPHEMERIS_TYPE":0,"CLASSIFICATION_TYPE":"U","NORAD_CAT_ID":41588,"ELEMENT_SET_NO":999,"REV_AT_EPOCH":3564,"BSTAR":0,"MEAN_MOTION_DOT":-9.8e-7,"MEAN_MOTION_DDOT":0},{"OBJECT_NAME":"EUTELSAT 117 WEST B","OBJECT_ID":"2016-038B","EPOCH":"2026-03-04T03:12:42.125760","MEAN_MOTION":1.00271894,"ECCENTRICITY":1.99e-5,"INCLINATION":0.0383,"RA_OF_ASC_NODE":347.9115,"ARG_OF_PERICENTER":235.6485,"MEAN_ANOMALY":229.5029,"EPHEMERIS_TYPE":0,"CLASSIFICATION_TYPE":"U","NORAD_CAT_ID":41589,"ELEMENT_SET_NO":999,"REV_AT_EPOCH":3561,"BSTAR":0,"MEAN_MOTION_DOT":-2.4e-7,"MEAN_MOTION_DDOT":0},{"OBJECT_NAME":"FALCON 9 R/B","OBJECT_ID":"2016-038C","EPOCH":"2026-03-03T20:39:06.145056","MEAN_MOTION":1.45721671,"ECCENTRICITY":0.7960651,"INCLINATION":23.7897,"RA_OF_ASC_NODE":344.3467,"ARG_OF_PERICENTER":270.0021,"MEAN_ANOMALY":9.8155,"EPHEMERIS_TYPE":0,"CLASSIFICATION_TYPE":"U","NORAD_CAT_ID":41590,"ELEMENT_SET_NO":999,"REV_AT_EPOCH":4453,"BSTAR":-0.00028504,"MEAN_MOTION_DOT":-2.5e-6,"MEAN_MOTION_DDOT":0},{"OBJECT_NAME":"BRISAT","OBJECT_ID":"2016-039A","EPOCH":"2026-03-03T21:38:15.620352","MEAN_MOTION":1.00268645,"ECCENTRICITY":0.0002196,"INCLINATION":0.0202,"RA_OF_ASC_NODE":151.9148,"ARG_OF_PERICENTER":192.5756,"MEAN_ANOMALY":292.2363,"EPHEMERIS_TYPE":0,"CLASSIFICATION_TYPE":"U","NORAD_CAT_ID":41591,"ELEMENT_SET_NO":999,"REV_AT_EPOCH":3555,"BSTAR":0,"MEAN_MOTION_DOT":0,"MEAN_MOTION_DDOT":0},{"OBJECT_NAME":"ECHOSTAR 18","OBJECT_ID":"2016-039B","EPOCH":"2026-03-04T03:36:38.719296","MEAN_MOTION":1.00271454,"ECCENTRICITY":0.0001633,"INCLINATION":0.0179,"RA_OF_ASC_NODE":126.5261,"ARG_OF_PERICENTER":216.672,"MEAN_ANOMALY":171.4854,"EPHEMERIS_TYPE":0,"CLASSIFICATION_TYPE":"U","NORAD_CAT_ID":41592,"ELEMENT_SET_NO":999,"REV_AT_EPOCH":3557,"BSTAR":0,"MEAN_MOTION_DOT":-2.94e-6,"MEAN_MOTION_DDOT":0},{"OBJECT_NAME":"MUOS-5","OBJECT_ID":"2016-041A","EPOCH":"2026-03-04T03:15:26.863776","MEAN_MOTION":1.00271742,"ECCENTRICITY":0.0195196,"INCLINATION":2.4319,"RA_OF_ASC_NODE":299.8179,"ARG_OF_PERICENTER":262.7474,"MEAN_ANOMALY":263.1059,"EPHEMERIS_TYPE":0,"CLASSIFICATION_TYPE":"U","NORAD_CAT_ID":41622,"ELEMENT_SET_NO":999,"REV_AT_EPOCH":3603,"BSTAR":0,"MEAN_MOTION_DOT":-1.69e-6,"MEAN_MOTION_DDOT":0},{"OBJECT_NAME":"TIANTONG-1 1","OBJECT_ID":"2016-048A","EPOCH":"2026-03-03T23:06:52.125984","MEAN_MOTION":1.00272692,"ECCENTRICITY":0.0005597,"INCLINATION":3.6496,"RA_OF_ASC_NODE":42.429,"ARG_OF_PERICENTER":354.3311,"MEAN_ANOMALY":213.0887,"EPHEMERIS_TYPE":0,"CLASSIFICATION_TYPE":"U","NORAD_CAT_ID":41725,"ELEMENT_SET_NO":999,"REV_AT_EPOCH":3521,"BSTAR":0,"MEAN_MOTION_DOT":-3.28e-6,"MEAN_MOTION_DDOT":0},{"OBJECT_NAME":"JCSAT-16","OBJECT_ID":"2016-050A","EPOCH":"2026-03-03T21:36:23.300352","MEAN_MOTION":1.00271445,"ECCENTRICITY":7.67e-5,"INCLINATION":0.0135,"RA_OF_ASC_NODE":131.4492,"ARG_OF_PERICENTER":216.6866,"MEAN_ANOMALY":281.5454,"EPHEMERIS_TYPE":0,"CLASSIFICATION_TYPE":"U","NORAD_CAT_ID":41729,"ELEMENT_SET_NO":999,"REV_AT_EPOCH":3501,"BSTAR":0,"MEAN_MOTION_DOT":-2.65e-6,"MEAN_MOTION_DDOT":0},{"OBJECT_NAME":"USA 270","OBJECT_ID":"2016-052A","EPOCH":"2026-02-20T16:59:52.340352","MEAN_MOTION":1.00327485,"ECCENTRICITY":0.0003302,"INCLINATION":3.8986,"RA_OF_ASC_NODE":78.691,"ARG_OF_PERICENTER":288.5278,"MEAN_ANOMALY":204.8551,"EPHEMERIS_TYPE":0,"CLASSIFICATION_TYPE":"U","NORAD_CAT_ID":41744,"ELEMENT_SET_NO":999,"REV_AT_EPOCH":2696,"BSTAR":0,"MEAN_MOTION_DOT":-3.6e-7,"MEAN_MOTION_DDOT":0},{"OBJECT_NAME":"USA 271","OBJECT_ID":"2016-052B","EPOCH":"2026-02-20T19:31:41.902752","MEAN_MOTION":1.00119522,"ECCENTRICITY":0.0001639,"INCLINATION":3.8712,"RA_OF_ASC_NODE":78.7558,"ARG_OF_PERICENTER":331.9763,"MEAN_ANOMALY":161.1961,"EPHEMERIS_TYPE":0,"CLASSIFICATION_TYPE":"U","NORAD_CAT_ID":41745,"ELEMENT_SET_NO":999,"REV_AT_EPOCH":2675,"BSTAR":0,"MEAN_MOTION_DOT":-3.46e-6,"MEAN_MOTION_DDOT":0}]
